*******************************************************************************
Ephemeris / WWW_USER Thu Mar 11 18:42:42 2021 Pasadena, USA      / Horizons
*******************************************************************************
Target body name: Mercury (199)                   {source: DE431mx}
Center body name: Sun (10)                        {source: DE431mx}
Center-site name: BODY CENTER
*******************************************************************************
Start time      : A.D. 1850-Jan-27 00:00:00.0000 TDB
Stop  time      : A.D. 1850-Jan-29 00:00:00.0000 TDB
Step-size       : 1 minutes
*******************************************************************************
Center geodetic : 0.00000000,0.00000000,0.0000000 {E-lon(deg),Lat(deg),Alt(km)}
Center cylindric: 0.00000000,0.00000000,0.0000000 {E-lon(deg),Dxy(km),Dz(km)}
Center radii    : 696000.0 x 696000.0 x 696000.0 k{Equator, meridian, pole}    
Output units    : KM-S
Output type     : GEOMETRIC cartesian states
Output format   : 1 (position only)
Reference frame : Ecliptic of J2000.0
*******************************************************************************
            JDTDB,            Calendar Date (TDB),                      X,                      Y,                      Z,
**************************************************************************************************************************
$$SOE
2396785.266666667, A.D. 1850-Jan-27 18:24:00.0000,  1.072271078682813E+07,  4.465760807570985E+07,  2.650959659747666E+06,
2396785.267361111, A.D. 1850-Jan-27 18:25:00.0000,  1.071928371243403E+07,  4.465840237251414E+07,  2.651340265772145E+06,
2396785.268055555, A.D. 1850-Jan-27 18:26:00.0000,  1.071585658543663E+07,  4.465919645016422E+07,  2.651720858785575E+06,
2396785.268750000, A.D. 1850-Jan-27 18:27:00.0000,  1.071242940585274E+07,  4.465999030865614E+07,  2.652101438786093E+06,
2396785.269444444, A.D. 1850-Jan-27 18:28:00.0000,  1.070900217369916E+07,  4.466078394798590E+07,  2.652482005771821E+06,
2396785.270138889, A.D. 1850-Jan-27 18:29:00.0000,  1.070557488899270E+07,  4.466157736814953E+07,  2.652862559740881E+06,
2396785.270833333, A.D. 1850-Jan-27 18:30:00.0000,  1.070214755175014E+07,  4.466237056914309E+07,  2.653243100691410E+06,
2396785.271527778, A.D. 1850-Jan-27 18:31:00.0000,  1.069872016198829E+07,  4.466316355096255E+07,  2.653623628621534E+06,
2396785.272222222, A.D. 1850-Jan-27 18:32:00.0000,  1.069529271972395E+07,  4.466395631360400E+07,  2.654004143529378E+06,
2396785.272916667, A.D. 1850-Jan-27 18:33:00.0000,  1.069186522497393E+07,  4.466474885706344E+07,  2.654384645413069E+06,
2396785.273611111, A.D. 1850-Jan-27 18:34:00.0000,  1.068843767775503E+07,  4.466554118133692E+07,  2.654765134270737E+06,
2396785.274305556, A.D. 1850-Jan-27 18:35:00.0000,  1.068501007808404E+07,  4.466633328642046E+07,  2.655145610100519E+06,
2396785.275000000, A.D. 1850-Jan-27 18:36:00.0000,  1.068158242597776E+07,  4.466712517231011E+07,  2.655526072900526E+06,
2396785.275694444, A.D. 1850-Jan-27 18:37:00.0000,  1.067815472145301E+07,  4.466791683900192E+07,  2.655906522668894E+06,
2396785.276388889, A.D. 1850-Jan-27 18:38:00.0000,  1.067472696452659E+07,  4.466870828649192E+07,  2.656286959403764E+06,
2396785.277083333, A.D. 1850-Jan-27 18:39:00.0000,  1.067129915521529E+07,  4.466949951477615E+07,  2.656667383103246E+06,
2396785.277777778, A.D. 1850-Jan-27 18:40:00.0000,  1.066787129353593E+07,  4.467029052385066E+07,  2.657047793765478E+06,
2396785.278472222, A.D. 1850-Jan-27 18:41:00.0000,  1.066444337950531E+07,  4.467108131371149E+07,  2.657428191388592E+06,
2396785.279166667, A.D. 1850-Jan-27 18:42:00.0000,  1.066101541314024E+07,  4.467187188435471E+07,  2.657808575970706E+06,
2396785.279861111, A.D. 1850-Jan-27 18:43:00.0000,  1.065758739445751E+07,  4.467266223577634E+07,  2.658188947509967E+06,
2396785.280555556, A.D. 1850-Jan-27 18:44:00.0000,  1.065415932347394E+07,  4.467345236797247E+07,  2.658569306004483E+06,
2396785.281250000, A.D. 1850-Jan-27 18:45:00.0000,  1.065073120020633E+07,  4.467424228093912E+07,  2.658949651452396E+06,
2396785.281944444, A.D. 1850-Jan-27 18:46:00.0000,  1.064730302467149E+07,  4.467503197467236E+07,  2.659329983851837E+06,
2396785.282638889, A.D. 1850-Jan-27 18:47:00.0000,  1.064387479688622E+07,  4.467582144916825E+07,  2.659710303200930E+06,
2396785.283333333, A.D. 1850-Jan-27 18:48:00.0000,  1.064044651686735E+07,  4.467661070442284E+07,  2.660090609497810E+06,
2396785.284027778, A.D. 1850-Jan-27 18:49:00.0000,  1.063701818463166E+07,  4.467739974043220E+07,  2.660470902740598E+06,
2396785.284722222, A.D. 1850-Jan-27 18:50:00.0000,  1.063358980019598E+07,  4.467818855719239E+07,  2.660851182927435E+06,
2396785.285416667, A.D. 1850-Jan-27 18:51:00.0000,  1.063016136357711E+07,  4.467897715469947E+07,  2.661231450056441E+06,
2396785.286111111, A.D. 1850-Jan-27 18:52:00.0000,  1.062673287479185E+07,  4.467976553294951E+07,  2.661611704125755E+06,
2396785.286805556, A.D. 1850-Jan-27 18:53:00.0000,  1.062330433385702E+07,  4.468055369193858E+07,  2.661991945133498E+06,
2396785.287500000, A.D. 1850-Jan-27 18:54:00.0000,  1.061987574078944E+07,  4.468134163166276E+07,  2.662372173077803E+06,
2396785.288194444, A.D. 1850-Jan-27 18:55:00.0000,  1.061644709560591E+07,  4.468212935211809E+07,  2.662752387956806E+06,
2396785.288888889, A.D. 1850-Jan-27 18:56:00.0000,  1.061301839832324E+07,  4.468291685330066E+07,  2.663132589768630E+06,
2396785.289583333, A.D. 1850-Jan-27 18:57:00.0000,  1.060958964895824E+07,  4.468370413520657E+07,  2.663512778511412E+06,
2396785.290277778, A.D. 1850-Jan-27 18:58:00.0000,  1.060616084752772E+07,  4.468449119783185E+07,  2.663892954183279E+06,
2396785.290972222, A.D. 1850-Jan-27 18:59:00.0000,  1.060273199404851E+07,  4.468527804117262E+07,  2.664273116782367E+06,
2396785.291666667, A.D. 1850-Jan-27 19:00:00.0000,  1.059930308853740E+07,  4.468606466522493E+07,  2.664653266306793E+06,
2396785.292361111, A.D. 1850-Jan-27 19:01:00.0000,  1.059587413101122E+07,  4.468685106998488E+07,  2.665033402754707E+06,
2396785.293055556, A.D. 1850-Jan-27 19:02:00.0000,  1.059244512148678E+07,  4.468763725544855E+07,  2.665413526124230E+06,
2396785.293750000, A.D. 1850-Jan-27 19:03:00.0000,  1.058901605998089E+07,  4.468842322161201E+07,  2.665793636413487E+06,
2396785.294444445, A.D. 1850-Jan-27 19:04:00.0000,  1.058558694651036E+07,  4.468920896847137E+07,  2.666173733620625E+06,
2396785.295138889, A.D. 1850-Jan-27 19:05:00.0000,  1.058215778109202E+07,  4.468999449602272E+07,  2.666553817743758E+06,
2396785.295833333, A.D. 1850-Jan-27 19:06:00.0000,  1.057872856374267E+07,  4.469077980426212E+07,  2.666933888781033E+06,
2396785.296527778, A.D. 1850-Jan-27 19:07:00.0000,  1.057529929447914E+07,  4.469156489318569E+07,  2.667313946730571E+06,
2396785.297222222, A.D. 1850-Jan-27 19:08:00.0000,  1.057186997331823E+07,  4.469234976278952E+07,  2.667693991590509E+06,
2396785.297916667, A.D. 1850-Jan-27 19:09:00.0000,  1.056844060027677E+07,  4.469313441306969E+07,  2.668074023358976E+06,
2396785.298611111, A.D. 1850-Jan-27 19:10:00.0000,  1.056501117537157E+07,  4.469391884402232E+07,  2.668454042034103E+06,
2396785.299305555, A.D. 1850-Jan-27 19:11:00.0000,  1.056158169861945E+07,  4.469470305564348E+07,  2.668834047614031E+06,
2396785.300000000, A.D. 1850-Jan-27 19:12:00.0000,  1.055815217003723E+07,  4.469548704792932E+07,  2.669214040096881E+06,
2396785.300694444, A.D. 1850-Jan-27 19:13:00.0000,  1.055472258964173E+07,  4.469627082087589E+07,  2.669594019480791E+06,
2396785.301388889, A.D. 1850-Jan-27 19:14:00.0000,  1.055129295744976E+07,  4.469705437447932E+07,  2.669973985763894E+06,
2396785.302083333, A.D. 1850-Jan-27 19:15:00.0000,  1.054786327347814E+07,  4.469783770873571E+07,  2.670353938944319E+06,
2396785.302777778, A.D. 1850-Jan-27 19:16:00.0000,  1.054443353774370E+07,  4.469862082364119E+07,  2.670733879020195E+06,
2396785.303472222, A.D. 1850-Jan-27 19:17:00.0000,  1.054100375026325E+07,  4.469940371919183E+07,  2.671113805989664E+06,
2396785.304166667, A.D. 1850-Jan-27 19:18:00.0000,  1.053757391105361E+07,  4.470018639538376E+07,  2.671493719850859E+06,
2396785.304861111, A.D. 1850-Jan-27 19:19:00.0000,  1.053414402013161E+07,  4.470096885221311E+07,  2.671873620601904E+06,
2396785.305555556, A.D. 1850-Jan-27 19:20:00.0000,  1.053071407751406E+07,  4.470175108967597E+07,  2.672253508240934E+06,
2396785.306250000, A.D. 1850-Jan-27 19:21:00.0000,  1.052728408321779E+07,  4.470253310776846E+07,  2.672633382766083E+06,
2396785.306944444, A.D. 1850-Jan-27 19:22:00.0000,  1.052385403725963E+07,  4.470331490648672E+07,  2.673013244175492E+06,
2396785.307638889, A.D. 1850-Jan-27 19:23:00.0000,  1.052042393965638E+07,  4.470409648582685E+07,  2.673393092467286E+06,
2396785.308333333, A.D. 1850-Jan-27 19:24:00.0000,  1.051699379042488E+07,  4.470487784578496E+07,  2.673772927639596E+06,
2396785.309027778, A.D. 1850-Jan-27 19:25:00.0000,  1.051356358958195E+07,  4.470565898635721E+07,  2.674152749690561E+06,
2396785.309722222, A.D. 1850-Jan-27 19:26:00.0000,  1.051013333714440E+07,  4.470643990753970E+07,  2.674532558618316E+06,
2396785.310416667, A.D. 1850-Jan-27 19:27:00.0000,  1.050670303312908E+07,  4.470722060932856E+07,  2.674912354420990E+06,
2396785.311111111, A.D. 1850-Jan-27 19:28:00.0000,  1.050327267755280E+07,  4.470800109171993E+07,  2.675292137096718E+06,
2396785.311805556, A.D. 1850-Jan-27 19:29:00.0000,  1.049984227043238E+07,  4.470878135470992E+07,  2.675671906643635E+06,
2396785.312500000, A.D. 1850-Jan-27 19:30:00.0000,  1.049641181178465E+07,  4.470956139829467E+07,  2.676051663059875E+06,
2396785.313194444, A.D. 1850-Jan-27 19:31:00.0000,  1.049298130162644E+07,  4.471034122247033E+07,  2.676431406343574E+06,
2396785.313888889, A.D. 1850-Jan-27 19:32:00.0000,  1.048955073997457E+07,  4.471112082723302E+07,  2.676811136492861E+06,
